#aV2007  2 27  0  0   .00000000      96 DD+AD WGS84 FIT  NGA
## 1416 172800.00000000   900.00000000 54158  .0000000000000
+   30     1  2  3  4  5  6  7  8  9 10 11 12 13 14 16 17 18
+         19 20 21 22 23 24 25 26 27 28 29 30 31  0  0  0  0
+          0  0  0  0  0  0  0  0  0  0  0  0  0  0  0  0  0
+          0  0  0  0  0  0  0  0  0  0  0  0  0  0  0  0  0
+          0  0  0  0  0  0  0  0  0  0  0  0  0  0  0  0  0
++         0  0  0  0  0  0  0  0  0  0  0  0  0  0  0  0  0
++         0  0  0  0  0  0  0  0  0  0  0  0  0  0  0  0  0
++         0  0  0  0  0  0  0  0  0  0  0  0  0  0  0  0  0
++         0  0  0  0  0  0  0  0  0  0  0  0  0  0  0  0  0
++         0  0  0  0  0  0  0  0  0  0  0  0  0  0  0  0  0
%c cc cc ccc ccc cccc cccc cccc cccc ccccc ccccc ccccc ccccc
%c cc cc ccc ccc cccc cccc cccc cccc ccccc ccccc ccccc ccccc
%f  0.0000000  0.000000000  0.00000000000  0.000000000000000
%f  0.0000000  0.000000000  0.00000000000  0.000000000000000
%i    0    0    0    0      0      0      0      0         0
%i    0    0    0    0      0      0      0      0         0
/*      NGA, ST. LOUIS,MO.                                  
/*   EPHEMERIS COMPUTED FROM  3 DAYS OF DATA                
/* CCCCCCCCCCCCCCCCCCCCCCCCCCCCCCCCCCCCCCCCCCCCCCCCCCCCCCCCC
/* CCCCCCCCCCCCCCCCCCCCCCCCCCCCCCCCCCCCCCCCCCCCCCCCCCCCCCCCC
*  2007  2 27 22 30   .00000000                                                 
P  1 -18134.974067  -8679.377757 -17180.353026    110.531060                    
V  1 -10117.377908 -19725.031585  20340.995862       .025480                    
P  2  17680.825406  -3658.155879 -19629.471068     86.114918                    
V  2  -9764.994444  22574.297815 -13418.317426       .032849                    
P  3 -19588.673124  -3434.186059  17552.173606     20.423736                    
V  3 -12516.099891 -19032.239921 -17160.587389       .058727                    
P  4  11774.028549  10622.800946 -21335.179676      5.912996                    
V  4 -13227.676450  23585.926810   4817.440244       .016568                    
P  5  14672.839744 -14479.376626 -16898.822044     40.767331                    
V  5  21242.937870   -706.910515  19465.434961       .033060                    
P  6  -2205.761790 -21945.522605 -14571.971410     56.990773                    
V  6  13123.179167  13912.613500 -22697.561345       .243613                    
P  7  -6279.850202 -22849.899681 -11575.938684    401.328095                    
V  7  11666.714733  10404.716057 -26184.432159      -.129613                    
P  8   3368.404663  18829.131371  18117.378120    -98.220903                    
V  8 -12926.505404  19528.744047 -18198.428296      -.012443                    
P  9  14932.105386 -20398.274482   7162.872844     59.477011                    
V  9  -1578.794074  10214.460841  30188.309495       .016676                    
P 10  26676.448411  -1428.877812   1029.048733     98.088906                    
V 10   1484.293560   2199.075798 -31718.186175       .005609                    
P 11 -12659.407253  22187.847224   6612.294390      8.623883                    
V 11  -2013.811068  -9773.644005  28780.949571       .012633                    
P 12  17267.648374 -12112.064494 -16006.662005    -47.517530                    
V 12  20616.889914    846.719177  21499.027830       .024610                    
P 13   4340.170406  23062.865942 -12578.103161    148.074532                    
V 13  -9318.300796 -12776.504026 -26793.111648       .039232                    
P 14 -16103.908021 -20749.696441  -4103.279154      9.810028                    
V 14  -1210.248872  -5480.008698  31744.846035       .014149                    
P 16 -26024.214108  -2481.805729  -4999.875971    126.356932                    
V 16   6327.026915  -2804.609005 -30884.409074       .035334                    
P 17  16089.128098  20975.406227  -3177.006106     77.178153                    
V 17   -115.865489   4853.244490  31318.240513      -.014798                    
P 18  -4097.786814 -15219.529101  21543.314217   -253.438085                    
V 18  27023.925833   -537.776016   4470.444905       .002687                    
P 19 -14213.015539   5922.984525  21742.390091      9.486857                    
V 19 -13278.117416 -23950.010122  -2066.581102       .040206                    
P 20 -15399.449559  13200.228032 -17222.008211    -22.584717                    
V 20 -21789.267502   -486.123307  19264.669357      -.001964                    
P 21   1827.662548 -22872.379158  12977.441997     72.342083                    
V 21  10787.611333 -12990.369482 -25162.466014       .008913                    
P 22 -16354.699481 -12193.428143  17173.954051    169.671058                    
V 22  21523.026025  -1881.799914  19314.769330       .020983                    
P 23  -4943.202887  17154.183203 -19681.688602    151.993844                    
V 23 -14520.253693 -20205.770560 -14207.192172       .018113                    
P 24  13111.274894 -23306.983886    439.294436     81.040262                    
V 24   2484.720700   1056.446928 -31446.526063       .031769                    
P 25 -17110.738263   8543.792272 -18125.456981    325.004797                    
V 25   7287.111779 -22657.369434 -17031.319480      -.194202                    
P 26  14581.135086  -3164.271592  21618.135712    -64.457719                    
V 26  14503.013693  24305.455756  -5553.375229      -.188618                    
P 27  -1756.303096  24049.526240  11477.563740     96.535598                    
V 27  -7667.387706  11598.308819 -27253.375851       .020716                    
P 28  12803.119402  13278.627609  19558.875524      6.450183                    
V 28 -23989.996445   1714.615083  14438.873622      -.008896                    
P 29  16824.101235    673.670135  20853.165531    359.006439                    
V 29  13689.288650  21883.883753 -11532.132310       .076007                    
P 30   4965.078472 -15717.480379 -21111.520628     26.636361                    
V 30  26153.910924  -1512.928897   7496.381701       .010465                    
P 31 -12716.156705  -8286.524637 -21591.607372     11.998361                    
V 31  12776.386107 -24806.823043   2035.644531       .030044                    
EOF
